stk.v.11.0
BEGIN Ephemeris
NumberOfEphemerisPoints 4
ScenarioEpoch 21 Mar 2026 09:32:00.000
InterpolationMethod Lagrange
InterpolationOrder 7
CentralBody Earth
CoordinateSystem TEME
DistanceUnit Kilometers
BEGIN EphemerisTimePosVel
0.000000 3919.236131411 2094.305451328 -5276.151902054 5.763131330 1.286978582 4.786834548
60.000000 4256.078540090 2166.822336795 -4977.447387177 5.465379522 1.131727712 5.160678314
120.000000 4574.321664031 2229.870095873 -4656.991168155 5.143743721 0.971531132 5.511969647
180.000000 4872.574764218 2283.173206574 -4316.183655344 4.799629492 0.807088910 5.839173385
END EphemerisTimePosVel
END Ephemeris
